STARLINK-2086           
1 47370U 21005X   24297.92927056  .00004121  00000+0  29528-3 0  9999
2 47370  53.0533 114.1079 0001346  90.7299 269.3844 15.06412458207983
STARLINK-2088           
1 47371U 21005Y   24297.91454010  .00007629  00000+0  53051-3 0  9998
2 47371  53.0533 154.1754 0001560  99.8192 260.2973 15.06399027207415
STARLINK-2089           
1 47372U 21005Z   24297.84315399  .00002899  00000+0  21347-3 0  9994
2 47372  53.0531 149.8128 0001161 107.7493 252.3623 15.06396755207464
STARLINK-2092           
1 47373U 21005AA  24297.84451497  .00007658  00000+0  53225-3 0  9993
2 47373  53.0535 154.4894 0001461  84.4406 275.6749 15.06412849207403
STARLINK-2093           
1 47374U 21005AB  24297.92927854  .00013638  00000+0  93163-3 0  9998
2 47374  53.0528 154.0813 0001642  89.6813 270.4364 15.06441857207411
STARLINK-2094           
1 47375U 21005AC  24297.87031324  .00011182  00000+0  76776-3 0  9994
2 47375  53.0523 154.3726 0001147 102.2252 257.8866 15.06429765207401
STARLINK-2096           
1 47376U 21005AD  24297.87399879  .00011425  00000+0  78402-3 0  9995
2 47376  53.0530 154.3582 0001479 107.3844 252.7307 15.06430093207401
STARLINK-2097           
1 47377U 21005AE  24297.92560376  .00009709  00000+0  66931-3 0  9990
2 47377  53.0521 154.1246 0001709  89.0909 271.0276 15.06426060207410
STARLINK-2098           
1 47378U 21005AF  24297.71918445  .00007041  00000+0  49077-3 0  9991
2 47378  53.0533 115.0487 0001256  85.5310 274.5822 15.06424178207942
STARLINK-2099           
1 47379U 21005AG  24297.92463751  .00006261  00000+0  43857-3 0  9993
2 47379  53.0538 114.1171 0001217  81.7973 278.3154 15.06423972207972
STARLINK-2100           
1 47380U 21005AH  24297.82146159  .00006156  00000+0  43148-3 0  9990
2 47380  53.0530 124.5931 0001404  98.8087 261.3061 15.06427678207828
STARLINK-2101           
1 47381U 21005AJ  24297.83761571 -.00000389  00000+0 -72364-5 0  9991
2 47381  53.0531 129.6082 0001020  83.4674 276.6431 15.06371863207755
STARLINK-2102           
1 47382U 21005AK  24297.94679370  .00010802  00000+0  74243-3 0  9994
2 47382  53.0535 124.0299 0001404  85.2808 274.8341 15.06426720207836
STARLINK-2103           
1 47383U 21005AL  24297.92561785  .00005097  00000+0  36051-3 0  9998
2 47383  53.0533 114.4050 0001398  95.4440 264.6708 15.06429335207974
STARLINK-2104           
1 47384U 21005AM  24297.93206771  .00006002  00000+0  42129-3 0  9991
2 47384  53.0531 124.3330 0001372  86.8841 273.2305 15.06417987207839
STARLINK-2105           
1 47385U 21005AN  24297.92835030  .00005327  00000+0  37598-3 0  9990
2 47385  53.0525 124.1104 0001314  96.7263 263.3875 15.06425277207837
STARLINK-2106           
1 47386U 21005AP  24297.82514407  .00006233  00000+0  43686-3 0  9994
2 47386  53.0530 124.5753 0001352  91.7723 268.3420 15.06407063207829
STARLINK-2109           
1 47388U 21005AR  24297.89242168  .00008514  00000+0  58940-3 0  9998
2 47388  53.0533 154.2735 0001536  88.7093 271.4072 15.06423670207408
STARLINK-2110           
1 47389U 21005AS  24297.93754273  .00009505  00000+0  65564-3 0  9990
2 47389  53.0524 134.0590 0001287  90.9563 269.1573 15.06428255207699
STARLINK-2111           
1 47390U 21005AT  24297.86662122  .00002762  00000+0  20427-3 0  9992
2 47390  53.0524 154.3920 0001301  83.3155 276.7982 15.06398348207409
STARLINK-2112           
1 47391U 21005AU  24297.94214515  .00008898  00000+0  61492-3 0  9994
2 47391  53.0539 124.0493 0001389  89.3293 270.7856 15.06436244207839
STARLINK-2113           
1 47392U 21005AV  24297.94309412  .00004215  00000+0  30151-3 0  9993
2 47392  53.0531 124.0436 0001514  91.7550 268.3612 15.06420855207836
STARLINK-2114           
1 47393U 21005AW  24297.77036525  .00005629  00000+0  39622-3 0  9999
2 47393  53.0535 100.1741 0001188  77.9629 282.1493 15.06424008208156
STARLINK-2115           
1 47394U 21005AX  24297.76849555  .00010247  00000+0  70548-3 0  9998
2 47394  53.0520 119.9936 0001355  90.4106 269.7038 15.06415930207880
STARLINK-2117           
1 47395U 21005AY  24297.92189358 -.00001070  00000+0 -52915-4 0  9990
2 47395  53.0536 114.1376 0001245 102.7612 257.3517 15.06424142207970
STARLINK-2119           
1 47397U 21005BA  24297.89611173  .00009361  00000+0  64602-3 0  9997
2 47397  53.0535 154.2594 0001113  88.5912 271.5204 15.06426890207418
STARLINK-2120           
1 47398U 21005BB  24297.93563941  .00033773  00000+0  22663-2 0  9996
2 47398  53.0529 124.0771 0001360 119.8996 240.2128 15.06548293207834
STARLINK-2121           
1 47399U 21005BC  24297.83900062  .00008955  00000+0  61887-3 0  9991
2 47399  53.0531 134.7560 0001376  85.6926 274.4220 15.06426729207675
STARLINK-2122           
1 47400U 21005BD  24297.93295535  .00008829  00000+0  61031-3 0  9998
2 47400  53.0533 114.1008 0001312  80.1117 280.0020 15.06434267207971
STARLINK-2123           
1 47401U 21005BE  24297.81777589  .00005655  00000+0  39803-3 0  9996
2 47401  53.0536 124.6098 0001397  93.0021 267.1128 15.06416841207827
STARLINK-2124           
1 47402U 21005BF  24297.83621021  .00007585  00000+0  52733-3 0  9999
2 47402  53.0528 124.5265 0001318  89.1985 270.9155 15.06414302207824
STARLINK-2127           
1 47403U 21005BG  24297.90993334  .00002951  00000+0  21684-3 0  9990
2 47403  53.0527 124.1914 0001386  96.6785 263.4361 15.06410315207834
STARLINK-2128           
1 47404U 21005BH  24297.90625549  .00008921  00000+0  61698-3 0  9993
2 47404  53.0526 124.2111 0001065  93.3364 266.7747 15.06400990207837
STARLINK-2130           
1 47405U 21005BJ  24297.88873754  .00011018  00000+0  75678-3 0  9998
2 47405  53.0533 154.2915 0001601  90.8811 269.2361 15.06431414207404
STARLINK-2133           
1 47406U 21005BK  24297.91732059 -.00001157  00000+0 -58828-4 0  9999
2 47406  53.0522 124.1562 0001182  96.1530 263.9593 15.06389697207838
STARLINK-2134           
1 47407U 21005BL  24297.79197849  .00006171  00000+0  43262-3 0  9992
2 47407  53.0529 124.7226 0001240  86.9877 273.1254 15.06418710207819
STARLINK-2135           
1 47408U 21005BM  24297.89518168  .00008737  00000+0  60414-3 0  9993
2 47408  53.0528 124.2618 0001256  88.1384 271.9748 15.06435301207834
STARLINK-1782           
1 47548U 21009A   24297.76800933 -.00014197  00000+0 -93604-3 0  9998
2 47548  53.0542 104.8309 0001285  95.5098 264.6037 15.06402300205282
STARLINK-1806           
1 47549U 21009B   24297.76432161  .00003370  00000+0  24491-3 0  9990
2 47549  53.0534 104.8459 0001043  99.2742 260.8365 15.06411686205288
STARLINK-1909           
1 47550U 21009C   24297.91668981  .00550272  00000+0  31978-1 0  9994
2 47550  53.0528  94.1331 0001182  78.7364 338.7013 15.09287381  5648
STARLINK-1938           
1 47551U 21009D   24297.77077746  .00002518  00000+0  18778-3 0  9992
2 47551  53.0542 114.8180 0001268  83.7634 276.3499 15.06418964205140
STARLINK-1940           
1 47552U 21009E   24297.90809783  .00005139  00000+0  36355-3 0  9995
2 47552  53.0528 104.2013 0000997  84.3744 275.7359 15.06410147205301
STARLINK-1953           
1 47554U 21009G   24297.91668981  .00668620  00000+0  38331-1 0  9995
2 47554  53.0521 124.1329 0001275  93.6278 299.8204 15.09704170  5840
STARLINK-1954           
1 47555U 21009H   24297.88872308  .00011218  00000+0  77007-3 0  9992
2 47555  53.0524 114.2886 0001297  86.9759 273.1379 15.06435194205164
STARLINK-1955           
1 47556U 21009J   24297.85740574  .00007516  00000+0  52263-3 0  9992
2 47556  53.0521 134.4308 0001304  93.8821 266.2317 15.06419601204878
STARLINK-1956           
1 47557U 21009K   24297.94879980  .00339428  00000+0  19645-1 0  9992
2 47557  53.0523 133.9738 0000138 170.2888 189.8105 15.10111002204895
STARLINK-1957           
1 47558U 21009L   24297.86754370  .00008136  00000+0  56408-3 0  9998
2 47558  53.0525 104.3822 0001405  84.1631 275.9518 15.06425354205294
STARLINK-1958           
1 47559U 21009M   24297.76525577  .00007071  00000+0  49275-3 0  9994
2 47559  53.0537  94.8410 0001367  92.0042 268.1103 15.06426110205425
STARLINK-1959           
1 47560U 21009N   24297.75692920  .00003818  00000+0  27486-3 0  9997
2 47560  53.0531  94.8715 0001194 114.4223 245.6891 15.06431123205421
STARLINK-1960           
1 47561U 21009P   24297.87767500  .00009201  00000+0  63529-3 0  9998
2 47561  53.0532 114.3396 0001209  92.9704 267.1423 15.06430115205168
STARLINK-1961           
1 47562U 21009Q   24297.89240989  .00010074  00000+0  69367-3 0  9994
2 47562  53.0524 114.2737 0001364  91.7585 268.3560 15.06430223205169
STARLINK-1962           
1 47563U 21009R   24297.78183620  .00010445  00000+0  71847-3 0  9999
2 47563  53.0535 114.7707 0001359  88.5510 271.5634 15.06431141205146
STARLINK-1963           
1 47564U 21009S   24297.78276213  .00007517  00000+0  52262-3 0  9997
2 47564  53.0530 104.7631 0001213  94.8293 265.2834 15.06424249205282
STARLINK-1964           
1 47565U 21009T   24297.91178945  .00003956  00000+0  28432-3 0  9991
2 47565  53.0537 104.1841 0001252  87.2816 272.8316 15.06396048205304
STARLINK-1965           
1 47566U 21009U   24297.70627363  .00005982  00000+0  41990-3 0  9997
2 47566  53.0540  95.1064 0001313  87.0432 273.0707 15.06423105205419
STARLINK-1966           
1 47567U 21009V   24297.94217918  .00007205  00000+0  50182-3 0  9998
2 47567  53.0527 134.0491 0001270  93.3054 266.8080 15.06421991204889
STARLINK-1967           
1 47568U 21009W   24297.83530607  .00014286  00000+0  97573-3 0  9992
2 47568  53.0524 134.5294 0001467  88.0683 272.0474 15.06409847204871
STARLINK-1970           
1 47571U 21009Z   24297.91668981 -.00108767  00000+0 -57569-2 0  9992
2 47571  53.0524 103.5782 0001259  84.0910 286.7623 15.15429527  5796
STARLINK-1971           
1 47572U 21009AA  24297.75327375  .00008998  00000+0  62175-3 0  9997
2 47572  53.0533 104.8988 0001390  82.0800 278.0346 15.06426268205282
